start=new Date('2022-09-14T00:00:00.000Z').valueOf();
sats=[{"TLE_LINE2":"2 53475  97.6556  16.6545 0001872  70.7329  15.2175 15.31169892  1307","CENTER_NAME":"EARTH","EPOCH":"2022-09-13T22:00:00.999936","MEAN_MOTION_DDOT":"0.0000000000000","GP_ID":"212538805","EPHEMERIS_TYPE":"0","OBJECT_ID":"2022-099L","TLE_LINE1":"1 53475U 22099L   22256.91667824 -.01232508  00000-0 -44593-1 0  9995","SITE":"AFWTR","APOAPSIS":"473.605","MEAN_MOTION_DOT":"-0.01232508","NORAD_CAT_ID":"53475","COUNTRY_CODE":"US","PERIAPSIS":"471.040","REV_AT_EPOCH":"130","ELEMENT_SET_NO":"999","ARG_OF_PERICENTER":"70.7329","ECCENTRICITY":"0.00018720","DECAY_DATE":null,"TIME_SYSTEM":"UTC","REF_FRAME":"TEME","SEMIMAJOR_AXIS":"6850.458","BSTAR":"-0.04459300000000","OBJECT_NAME":"STARLINK-4389","MEAN_MOTION":"15.31169892","MEAN_ELEMENT_THEORY":"SGP4","RCS_SIZE":"LARGE","RA_OF_ASC_NODE":"16.6545","CLASSIFICATION_TYPE":"U","MEAN_ANOMALY":"15.2175","LAUNCH_DATE":"2022-08-12","INCLINATION":"97.6556","FILE":"3573088","OBJECT_TYPE":"PAYLOAD","PERIOD":"94.046"},{"LAUNCH_DATE":"2022-08-12","INCLINATION":"97.6556","OBJECT_TYPE":"PAYLOAD","FILE":"3573088","PERIOD":"94.078","RA_OF_ASC_NODE":"16.6523","CLASSIFICATION_TYPE":"U","MEAN_ANOMALY":"0.7526","MEAN_ELEMENT_THEORY":"SGP4","RCS_SIZE":"LARGE","PERIAPSIS":"472.611","REV_AT_EPOCH":"130","ARG_OF_PERICENTER":"67.7967","ELEMENT_SET_NO":"999","ECCENTRICITY":"0.00018650","TIME_SYSTEM":"UTC","DECAY_DATE":null,"REF_FRAME":"TEME","SEMIMAJOR_AXIS":"6852.023","BSTAR":"-0.04528300000000","OBJECT_NAME":"STARLINK-4378","MEAN_MOTION":"15.30645071","MEAN_MOTION_DOT":"-0.01231387","APOAPSIS":"475.166","NORAD_CAT_ID":"53476","COUNTRY_CODE":"US","OBJECT_ID":"2022-099M","SITE":"AFWTR","TLE_LINE1":"1 53476U 22099M   22256.91667824 -.01231387  00000-0 -45283-1 0  9997","CENTER_NAME":"EARTH","MEAN_MOTION_DDOT":"0.0000000000000","EPOCH":"2022-09-13T22:00:00.999936","GP_ID":"212538647","EPHEMERIS_TYPE":"0","TLE_LINE2":"2 53476  97.6556  16.6523 0001865  67.7967   0.7526 15.30645071  1306"},{"TLE_LINE2":"2 53477  97.6556  16.6516 0001933  65.8464  25.0777 15.31290869  1306","GP_ID":"212537701","EPHEMERIS_TYPE":"0","MEAN_MOTION_DDOT":"0.0000000000000","EPOCH":"2022-09-13T22:00:00.999936","CENTER_NAME":"EARTH","SITE":"AFWTR","TLE_LINE1":"1 53477U 22099N   22256.91667824 -.01232958  00000-0 -44442-1 0  9999","OBJECT_ID":"2022-099N","COUNTRY_CODE":"US","MEAN_MOTION_DOT":"-0.01232958","APOAPSIS":"473.286","NORAD_CAT_ID":"53477","OBJECT_NAME":"STARLINK-4412","SEMIMAJOR_AXIS":"6850.097","BSTAR":"-0.04444200000000","REF_FRAME":"TEME","TIME_SYSTEM":"UTC","DECAY_DATE":null,"MEAN_MOTION":"15.31290869","PERIAPSIS":"470.638","ELEMENT_SET_NO":"999","ARG_OF_PERICENTER":"65.8464","ECCENTRICITY":"0.00019330","REV_AT_EPOCH":"130","RCS_SIZE":"LARGE","MEAN_ELEMENT_THEORY":"SGP4","CLASSIFICATION_TYPE":"U","MEAN_ANOMALY":"25.0777","RA_OF_ASC_NODE":"16.6516","OBJECT_TYPE":"PAYLOAD","FILE":"3573088","PERIOD":"94.038","LAUNCH_DATE":"2022-08-12","INCLINATION":"97.6556"},{"BSTAR":"-0.04518000000000","SEMIMAJOR_AXIS":"6851.787","REF_FRAME":"TEME","OBJECT_NAME":"STARLINK-4433","DECAY_DATE":null,"TIME_SYSTEM":"UTC","MEAN_MOTION":"15.30724351","PERIAPSIS":"472.369","ARG_OF_PERICENTER":"67.6548","ELEMENT_SET_NO":"999","ECCENTRICITY":"0.00018730","REV_AT_EPOCH":"130","RCS_SIZE":"LARGE","MEAN_ELEMENT_THEORY":"SGP4","CLASSIFICATION_TYPE":"U","MEAN_ANOMALY":"3.9720","RA_OF_ASC_NODE":"16.6514","OBJECT_TYPE":"PAYLOAD","FILE":"3573088","PERIOD":"94.073","LAUNCH_DATE":"2022-08-12","INCLINATION":"97.6556","TLE_LINE2":"2 53478  97.6556  16.6514 0001873  67.6548   3.9720 15.30724351  1301","GP_ID":"212537860","EPHEMERIS_TYPE":"0","MEAN_MOTION_DDOT":"0.0000000000000","EPOCH":"2022-09-13T22:00:00.999936","CENTER_NAME":"EARTH","TLE_LINE1":"1 53478U 22099P   22256.91667824 -.01231602  00000-0 -45180-1 0  9995","SITE":"AFWTR","OBJECT_ID":"2022-099P","COUNTRY_CODE":"US","APOAPSIS":"474.935","MEAN_MOTION_DOT":"-0.01231602","NORAD_CAT_ID":"53478"},{"TLE_LINE2":"2 53479  97.6556  16.6534 0002173  52.4312  48.6374 15.31597857  1300","GP_ID":"212538589","EPHEMERIS_TYPE":"0","MEAN_MOTION_DDOT":"0.0000000000000","EPOCH":"2022-09-13T22:00:00.999936","CENTER_NAME":"EARTH","TLE_LINE1":"1 53479U 22099Q   22256.91667824 -.01216804  00000-0 -44045-1 0  9992","SITE":"AFWTR","OBJECT_ID":"2022-099Q","COUNTRY_CODE":"US","MEAN_MOTION_DOT":"-0.01216804","APOAPSIS":"472.535","NORAD_CAT_ID":"53479","SEMIMAJOR_AXIS":"6849.181","BSTAR":"-0.04404500000000","REF_FRAME":"TEME","OBJECT_NAME":"STARLINK-4436","TIME_SYSTEM":"UTC","DECAY_DATE":null,"MEAN_MOTION":"15.31597857","PERIAPSIS":"469.558","ELEMENT_SET_NO":"999","ARG_OF_PERICENTER":"52.4312","ECCENTRICITY":"0.00021730","REV_AT_EPOCH":"130","RCS_SIZE":"LARGE","MEAN_ELEMENT_THEORY":"SGP4","CLASSIFICATION_TYPE":"U","MEAN_ANOMALY":"48.6374","RA_OF_ASC_NODE":"16.6534","FILE":"3573088","OBJECT_TYPE":"PAYLOAD","PERIOD":"94.019","LAUNCH_DATE":"2022-08-12","INCLINATION":"97.6556"},{"NORAD_CAT_ID":"53480","APOAPSIS":"473.553","MEAN_MOTION_DOT":"-0.01232776","COUNTRY_CODE":"US","OBJECT_ID":"2022-099R","TLE_LINE1":"1 53480U 22099R   22256.91667824 -.01232776  00000-0 -44560-1 0  9992","SITE":"AFWTR","CENTER_NAME":"EARTH","MEAN_MOTION_DDOT":"0.0000000000000","EPOCH":"2022-09-13T22:00:00.999936","EPHEMERIS_TYPE":"0","GP_ID":"212538431","TLE_LINE2":"2 53480  97.6556  16.6527 0001931  65.4295  22.1716 15.31200774  1305","INCLINATION":"97.6556","LAUNCH_DATE":"2022-08-12","PERIOD":"94.044","FILE":"3573088","OBJECT_TYPE":"PAYLOAD","RA_OF_ASC_NODE":"16.6527","MEAN_ANOMALY":"22.1716","CLASSIFICATION_TYPE":"U","MEAN_ELEMENT_THEORY":"SGP4","RCS_SIZE":"LARGE","REV_AT_EPOCH":"130","ELEMENT_SET_NO":"999","ECCENTRICITY":"0.00019310","ARG_OF_PERICENTER":"65.4295","PERIAPSIS":"470.908","MEAN_MOTION":"15.31200774","DECAY_DATE":null,"TIME_SYSTEM":"UTC","REF_FRAME":"TEME","SEMIMAJOR_AXIS":"6850.366","BSTAR":"-0.04456000000000","OBJECT_NAME":"STARLINK-4442"},{"TLE_LINE2":"2 53481  97.6556  16.6540 0001990  64.3360  44.1108 15.31808556  1308","EPHEMERIS_TYPE":"0","GP_ID":"212538118","MEAN_MOTION_DDOT":"0.0000000000000","EPOCH":"2022-09-13T22:00:00.999936","CENTER_NAME":"EARTH","TLE_LINE1":"1 53481U 22099S   22256.91667824 -.01216923  00000-0 -43762-1 0  9992","SITE":"AFWTR","OBJECT_ID":"2022-099S","COUNTRY_CODE":"US","NORAD_CAT_ID":"53481","APOAPSIS":"471.781","MEAN_MOTION_DOT":"-0.01216923","MEAN_MOTION":"15.31808556","SEMIMAJOR_AXIS":"6848.553","BSTAR":"-0.04376200000000","OBJECT_NAME":"STARLINK-4302","REF_FRAME":"TEME","DECAY_DATE":null,"TIME_SYSTEM":"UTC","ELEMENT_SET_NO":"999","ARG_OF_PERICENTER":"64.3360","ECCENTRICITY":"0.00019900","REV_AT_EPOCH":"130","PERIAPSIS":"469.056","RCS_SIZE":"LARGE","MEAN_ELEMENT_THEORY":"SGP4","MEAN_ANOMALY":"44.1108","CLASSIFICATION_TYPE":"U","RA_OF_ASC_NODE":"16.6540","PERIOD":"94.007","FILE":"3573088","OBJECT_TYPE":"PAYLOAD","INCLINATION":"97.6556","LAUNCH_DATE":"2022-08-12"},{"CENTER_NAME":"EARTH","MEAN_MOTION_DDOT":"0.0000000000000","EPOCH":"2022-09-13T22:00:00.999936","GP_ID":"212538276","EPHEMERIS_TYPE":"0","TLE_LINE2":"2 53482  97.6556  16.6535 0001998  63.3945  43.1271 15.31766871  1302","MEAN_MOTION_DOT":"-0.01216870","APOAPSIS":"471.911","NORAD_CAT_ID":"53482","COUNTRY_CODE":"US","OBJECT_ID":"2022-099T","TLE_LINE1":"1 53482U 22099T   22256.91667824 -.01216870  00000-0 -43817-1 0  9995","SITE":"AFWTR","MEAN_ELEMENT_THEORY":"SGP4","RCS_SIZE":"LARGE","PERIAPSIS":"469.174","REV_AT_EPOCH":"130","ELEMENT_SET_NO":"999","ECCENTRICITY":"0.00019980","ARG_OF_PERICENTER":"63.3945","DECAY_DATE":null,"TIME_SYSTEM":"UTC","SEMIMAJOR_AXIS":"6848.678","BSTAR":"-0.04381700000000","REF_FRAME":"TEME","OBJECT_NAME":"STARLINK-4360","MEAN_MOTION":"15.31766871","LAUNCH_DATE":"2022-08-12","INCLINATION":"97.6556","OBJECT_TYPE":"PAYLOAD","FILE":"3573088","PERIOD":"94.009","RA_OF_ASC_NODE":"16.6535","CLASSIFICATION_TYPE":"U","MEAN_ANOMALY":"43.1271"},{"MEAN_ELEMENT_THEORY":"SGP4","RCS_SIZE":"LARGE","REV_AT_EPOCH":"130","ELEMENT_SET_NO":"999","ECCENTRICITY":"0.00020250","ARG_OF_PERICENTER":"63.2195","PERIAPSIS":"468.180","MEAN_MOTION":"15.32094441","DECAY_DATE":null,"TIME_SYSTEM":"UTC","SEMIMAJOR_AXIS":"6847.701","BSTAR":"-0.04338400000000","OBJECT_NAME":"STARLINK-4401","REF_FRAME":"TEME","INCLINATION":"97.6557","LAUNCH_DATE":"2022-08-12","PERIOD":"93.989","OBJECT_TYPE":"PAYLOAD","FILE":"3573088","RA_OF_ASC_NODE":"16.6513","MEAN_ANOMALY":"55.3645","CLASSIFICATION_TYPE":"U","CENTER_NAME":"EARTH","MEAN_MOTION_DDOT":"0.0000000000000","EPOCH":"2022-09-13T22:00:00.999936","EPHEMERIS_TYPE":"0","GP_ID":"212538806","TLE_LINE2":"2 53483  97.6557  16.6513 0002025  63.2195  55.3645 15.32094441  1306","NORAD_CAT_ID":"53483","APOAPSIS":"470.953","MEAN_MOTION_DOT":"-0.01217259","COUNTRY_CODE":"US","OBJECT_ID":"2022-099U","SITE":"AFWTR","TLE_LINE1":"1 53483U 22099U   22256.91667824 -.01217259  00000-0 -43384-1 0  9997"},{"RA_OF_ASC_NODE":"16.6524","MEAN_ANOMALY":"23.8822","CLASSIFICATION_TYPE":"U","INCLINATION":"97.6556","LAUNCH_DATE":"2022-08-12","PERIOD":"94.004","OBJECT_TYPE":"PAYLOAD","FILE":"3573088","REV_AT_EPOCH":"130","ELEMENT_SET_NO":"999","ECCENTRICITY":"0.00018350","ARG_OF_PERICENTER":"86.4870","PERIAPSIS":"469.038","MEAN_MOTION":"15.31850032","DECAY_DATE":null,"TIME_SYSTEM":"UTC","OBJECT_NAME":"STARLINK-4426","SEMIMAJOR_AXIS":"6848.430","BSTAR":"-0.04368900000000","REF_FRAME":"TEME","MEAN_ELEMENT_THEORY":"SGP4","RCS_SIZE":"LARGE","OBJECT_ID":"2022-099V","SITE":"AFWTR","TLE_LINE1":"1 53484U 22099V   22256.91667824 -.01216472  00000-0 -43689-1 0  9992","NORAD_CAT_ID":"53484","MEAN_MOTION_DOT":"-0.01216472","APOAPSIS":"471.551","COUNTRY_CODE":"US","TLE_LINE2":"2 53484  97.6556  16.6524 0001835  86.4870  23.8822 15.31850032  1305","CENTER_NAME":"EARTH","MEAN_MOTION_DDOT":"0.0000000000000","EPOCH":"2022-09-13T22:00:00.999936","EPHEMERIS_TYPE":"0","GP_ID":"212538648"}];
